{
  "46496": {
    "name": "ICEYE-X7",
    "line1": "1 46496U 20068L   26103.95060078  .00006724  00000+0  23320-3 0  9993",
    "line2": "2 46496  97.7451  67.6532 0007683 178.5752 181.5511 15.30137613304966",
    "meta": {
      "display_name": "ICEYE-46496",
      "type": "sar",
      "swath_km": 5.0,
      "resolution_m": 1.0,
      "off_nadir_deg": 40,
      "altitude_km": 580.0,
      "priority": 10
    }
  },
  "44390": {
    "name": "ICEYE-X4",
    "line1": "1 44390U 19038D   26103.97851498  .00006276  00000+0  23296-3 0  9999",
    "line2": "2 44390  97.8833 133.1694 0014444 163.2352 196.9366 15.27881672371992",
    "meta": {
      "display_name": "ICEYE-44390",
      "type": "sar",
      "swath_km": 5.0,
      "resolution_m": 1.0,
      "off_nadir_deg": 40,
      "altitude_km": 580.0,
      "priority": 10
    }
  },
  "48918": {
    "name": "ICEYE-X11",
    "line1": "1 48918U 21059AR  26103.95292209  .00074343  00000+0  38349-3 0  9997",
    "line2": "2 48918  97.6411 295.5626 0004443 199.7206 160.3890 15.80921953267795",
    "meta": {
      "display_name": "ICEYE-48918",
      "type": "sar",
      "swath_km": 5.0,
      "resolution_m": 1.0,
      "off_nadir_deg": 40,
      "altitude_km": 580.0,
      "priority": 10
    }
  },
  "56947": {
    "name": "ICEYE-X30",
    "line1": "1 56947U 23084R   26103.40746284  .00098036  00000+0  48723-3 0  9997",
    "line2": "2 56947  97.5707 257.9159 0005031 203.5281 156.5757 15.81659932158690",
    "meta": {
      "display_name": "ICEYE-56947",
      "type": "sar",
      "swath_km": 5.0,
      "resolution_m": 1.0,
      "off_nadir_deg": 40,
      "altitude_km": 580.0,
      "priority": 10
    }
  },
  "43800": {
    "name": "ICEYE-X2",
    "line1": "1 43800U 18099AU  26103.97431406  .00002298  00000+0  11972-3 0  9991",
    "line2": "2 43800  97.4427 158.9679 0011098 158.0097 202.1615 15.16941435403085",
    "meta": {
      "display_name": "ICEYE-43800",
      "type": "sar",
      "swath_km": 5.0,
      "resolution_m": 1.0,
      "off_nadir_deg": 40,
      "altitude_km": 580.0,
      "priority": 10
    }
  },
  "56961": {
    "name": "ICEYE-X26",
    "line1": "1 56961U 23084AF  26103.86666255  .00053369  00000+0  30661-3 0  9994",
    "line2": "2 56961  97.5794 262.7255 0001250 188.5129 171.6116 15.78619524159041",
    "meta": {
      "display_name": "ICEYE-56961",
      "type": "sar",
      "swath_km": 5.0,
      "resolution_m": 1.0,
      "off_nadir_deg": 40,
      "altitude_km": 580.0,
      "priority": 10
    }
  },
  "55049": {
    "name": "ICEYE-X21",
    "line1": "1 55049U 23001AS  26103.93706142  .00091332  00000+0  41092-3 0  9999",
    "line2": "2 55049  97.3305 185.0860 0003549 255.0269 105.0608 15.83827247183380",
    "meta": {
      "display_name": "ICEYE-55049",
      "type": "sar",
      "swath_km": 5.0,
      "resolution_m": 1.0,
      "off_nadir_deg": 40,
      "altitude_km": 580.0,
      "priority": 10
    }
  },
  "56963": {
    "name": "ICEYE-X25",
    "line1": "1 56963U 23084AH  26103.94699841  .00028205  00000+0  41762-3 0  9997",
    "line2": "2 56963  97.5800 246.0630 0004492 173.0700 187.0616 15.55237672157979",
    "meta": {
      "display_name": "ICEYE-56963",
      "type": "sar",
      "swath_km": 5.0,
      "resolution_m": 1.0,
      "off_nadir_deg": 40,
      "altitude_km": 580.0,
      "priority": 10
    }
  },
  "46497": {
    "name": "ICEYE-X6",
    "line1": "1 46497U 20068M   26103.93745168  .00001458  00000+0  10988-3 0  9997",
    "line2": "2 46497  98.0953  94.5630 0006132 314.3019  45.7702 15.04174052303578",
    "meta": {
      "display_name": "ICEYE-46497",
      "type": "sar",
      "swath_km": 5.0,
      "resolution_m": 1.0,
      "off_nadir_deg": 40,
      "altitude_km": 580.0,
      "priority": 10
    }
  },
  "44389": {
    "name": "ICEYE-X5",
    "line1": "1 44389U 19038C   26103.95558083  .00023201  00000+0  40845-3 0  9995",
    "line2": "2 44389  97.8774 152.4687 0008202 126.9665 233.2337 15.50429896372994",
    "meta": {
      "display_name": "ICEYE-44389",
      "type": "sar",
      "swath_km": 5.0,
      "resolution_m": 1.0,
      "off_nadir_deg": 40,
      "altitude_km": 580.0,
      "priority": 10
    }
  },
  "58288": {
    "name": "ICEYE-X31",
    "line1": "1 58288U 23174AJ  26103.98153105  .00010023  00000+0  32427-3 0  9998",
    "line2": "2 58288  97.3812 179.8393 0003192 170.8106 189.3195 15.32248080134918",
    "meta": {
      "display_name": "ICEYE-58288",
      "type": "sar",
      "swath_km": 5.0,
      "resolution_m": 1.0,
      "off_nadir_deg": 40,
      "altitude_km": 580.0,
      "priority": 10
    }
  },
  "58302": {
    "name": "ICEYE-X35",
    "line1": "1 58302U 23174AY  26103.92807414  .00027900  00000+0  54485-3 0  9998",
    "line2": "2 58302  97.3821 186.9886 0008933  73.4846 286.7385 15.47403754135391",
    "meta": {
      "display_name": "ICEYE-58302",
      "type": "sar",
      "swath_km": 5.0,
      "resolution_m": 1.0,
      "off_nadir_deg": 40,
      "altitude_km": 580.0,
      "priority": 10
    }
  },
  "58294": {
    "name": "ICEYE-X34",
    "line1": "1 58294U 23174AQ  26103.66155964  .00039898  00000+0  56236-3 0  9990",
    "line2": "2 58294  97.3892 192.2044 0002045   5.0091 355.1184 15.56517415135686",
    "meta": {
      "display_name": "ICEYE-58294",
      "type": "sar",
      "swath_km": 5.0,
      "resolution_m": 1.0,
      "off_nadir_deg": 40,
      "altitude_km": 580.0,
      "priority": 10
    }
  },
  "59100": {
    "name": "ICEYE-X38",
    "line1": "1 59100U 24043C   26103.94697545  .00003421  00000+0  20185-3 0  9997",
    "line2": "2 59100  97.8301 245.9913 0001444 322.9271  37.1859 15.12259115101969",
    "meta": {
      "display_name": "ICEYE-59100",
      "type": "sar",
      "swath_km": 5.0,
      "resolution_m": 1.0,
      "off_nadir_deg": 40,
      "altitude_km": 580.0,
      "priority": 10
    }
  },
  "59102": {
    "name": "ICEYE-X37",
    "line1": "1 59102U 24043E   26103.79099378  .00003274  00000+0  23114-3 0  9993",
    "line2": "2 59102  97.8204 239.8428 0014754 224.2833 135.7214 15.05588290115395",
    "meta": {
      "display_name": "ICEYE-59102",
      "type": "sar",
      "swath_km": 5.0,
      "resolution_m": 1.0,
      "off_nadir_deg": 40,
      "altitude_km": 580.0,
      "priority": 10
    }
  },
  "59103": {
    "name": "ICEYE-X36",
    "line1": "1 59103U 24043F   26103.36258483  .00002382  00000+0  16619-3 0  9992",
    "line2": "2 59103  97.8266 240.3531 0006478 166.4701 193.6700 15.06366681115382",
    "meta": {
      "display_name": "ICEYE-59103",
      "type": "sar",
      "swath_km": 5.0,
      "resolution_m": 1.0,
      "off_nadir_deg": 40,
      "altitude_km": 580.0,
      "priority": 10
    }
  },
  "60539": {
    "name": "ICEYE-X43",
    "line1": "1 60539U 24149BZ  26103.84283840  .00001840  00000+0  15424-3 0  9993",
    "line2": "2 60539  97.6843 181.6846 0001717 346.3033  13.8143 14.99616751 90473",
    "meta": {
      "display_name": "ICEYE-60539",
      "type": "sar",
      "swath_km": 5.0,
      "resolution_m": 1.0,
      "off_nadir_deg": 40,
      "altitude_km": 580.0,
      "priority": 10
    }
  },
  "60546": {
    "name": "ICEYE-X39",
    "line1": "1 60546U 24149CG  26103.95762374  .00002669  00000+0  22223-3 0  9992",
    "line2": "2 60546  97.6800 181.8453 0000975 286.4240  73.6876 14.99498628 90499",
    "meta": {
      "display_name": "ICEYE-60546",
      "type": "sar",
      "swath_km": 5.0,
      "resolution_m": 1.0,
      "off_nadir_deg": 40,
      "altitude_km": 580.0,
      "priority": 10
    }
  },
  "60549": {
    "name": "ICEYE-X40",
    "line1": "1 60549U 24149CK  26103.96966535  .00001695  00000+0  14946-3 0  9992",
    "line2": "2 60549  97.6831 181.5027 0002901 304.7377  55.3571 14.97735158 90462",
    "meta": {
      "display_name": "ICEYE-60549",
      "type": "sar",
      "swath_km": 5.0,
      "resolution_m": 1.0,
      "off_nadir_deg": 40,
      "altitude_km": 580.0,
      "priority": 10
    }
  },
  "60548": {
    "name": "ICEYE-X33",
    "line1": "1 60548U 24149CJ  26103.63547215  .00003094  00000+0  24435-3 0  9994",
    "line2": "2 60548  97.7095 183.2070 0004215  24.5606 335.5818 15.01429549 90527",
    "meta": {
      "display_name": "ICEYE-60548",
      "type": "sar",
      "swath_km": 5.0,
      "resolution_m": 1.0,
      "off_nadir_deg": 40,
      "altitude_km": 580.0,
      "priority": 10
    }
  },
  "62384": {
    "name": "ICEYE-X49",
    "line1": "1 62384U 24247H   26103.91497057  .00003613  00000+0  21838-3 0  9993",
    "line2": "2 62384  44.9997 340.3682 0000613 281.6558  78.4251 15.12507925 72449",
    "meta": {
      "display_name": "ICEYE-62384",
      "type": "sar",
      "swath_km": 5.0,
      "resolution_m": 1.0,
      "off_nadir_deg": 40,
      "altitude_km": 580.0,
      "priority": 10
    }
  },
  "62389": {
    "name": "ICEYE-X47",
    "line1": "1 62389U 24247N   26103.70430946  .00003776  00000+0  22594-3 0  9999",
    "line2": "2 62389  44.9973 341.2477 0001661 249.9054 110.1645 15.12766728 72418",
    "meta": {
      "display_name": "ICEYE-62389",
      "type": "sar",
      "swath_km": 5.0,
      "resolution_m": 1.0,
      "off_nadir_deg": 40,
      "altitude_km": 580.0,
      "priority": 10
    }
  },
  "62698": {
    "name": "ICEYE-X42",
    "line1": "1 62698U 25009CT  26103.95148551  .00001375  00000+0  14170-3 0  9998",
    "line2": "2 62698  97.7388 183.4190 0001428 117.7295 242.4069 14.91841879 67718",
    "meta": {
      "display_name": "ICEYE-62698",
      "type": "sar",
      "swath_km": 5.0,
      "resolution_m": 1.0,
      "off_nadir_deg": 40,
      "altitude_km": 580.0,
      "priority": 10
    }
  },
  "62700": {
    "name": "ICEYE-X41",
    "line1": "1 62700U 25009CV  26103.94914824  .00001694  00000+0  15477-3 0  9990",
    "line2": "2 62700  97.7072 184.4288 0001199 185.3565 174.7644 14.96341358 67805",
    "meta": {
      "display_name": "ICEYE-62700",
      "type": "sar",
      "swath_km": 5.0,
      "resolution_m": 1.0,
      "off_nadir_deg": 40,
      "altitude_km": 580.0,
      "priority": 10
    }
  },
  "62705": {
    "name": "ICEYE-X45",
    "line1": "1 62705U 25009DA  26102.99248675  .00002651  00000+0  21332-3 0  9994",
    "line2": "2 62705  97.8132 189.2513 0000966  78.9022 281.2310 15.00855514 67903",
    "meta": {
      "display_name": "ICEYE-62705",
      "type": "sar",
      "swath_km": 5.0,
      "resolution_m": 1.0,
      "off_nadir_deg": 40,
      "altitude_km": 580.0,
      "priority": 10
    }
  },
  "62707": {
    "name": "ICEYE-X44",
    "line1": "1 62707U 25009DC  26103.93361572  .00001152  00000+0  10879-3 0  9992",
    "line2": "2 62707  97.7068 184.0927 0001359  40.6592 319.4730 14.95646389 90333",
    "meta": {
      "display_name": "ICEYE-62707",
      "type": "sar",
      "swath_km": 5.0,
      "resolution_m": 1.0,
      "off_nadir_deg": 40,
      "altitude_km": 580.0,
      "priority": 10
    }
  },
  "63229": {
    "name": "SPACEEYE-T1",
    "line1": "1 63229U 25052V   26103.97179535  .00002920  00000+0  13120-3 0  9996",
    "line2": "2 63229  97.4026 357.5512 0005652  34.6567 325.5037 15.21922022 60073",
    "meta": {
      "display_name": "SpaceEye-T",
      "type": "optical",
      "swath_km": 12,
      "resolution_m": 0.25,
      "off_nadir_deg": 45,
      "altitude_km": 510,
      "priority": 1
    }
  }
}